{
    "CCSDS_OMM_VERS": "3.0",
    "COMMENT": "GENERATED VIA SPACE-TRACK.ORG API",
    "CREATION_DATE": "2025-05-23T14:46:20",
    "ORIGINATOR": "18 SPCS",
    "OBJECT_NAME": "GALILEO 16 (26C)",
    "OBJECT_ID": "2016-069B",
    "CENTER_NAME": "EARTH",
    "REF_FRAME": "TEME",
    "TIME_SYSTEM": "UTC",
    "MEAN_ELEMENT_THEORY": "SGP4",
    "EPOCH": "2025-05-23T02:34:57.078912",
    "MEAN_MOTION": "1.70474065",
    "ECCENTRICITY": "0.00044480",
    "INCLINATION": "55.2619",
    "RA_OF_ASC_NODE": "111.8870",
    "ARG_OF_PERICENTER": "333.7538",
    "MEAN_ANOMALY": "26.1934",
    "EPHEMERIS_TYPE": "0",
    "CLASSIFICATION_TYPE": "U",
    "NORAD_CAT_ID": "41860",
    "ELEMENT_SET_NO": "999",
    "REV_AT_EPOCH": "5300",
    "BSTAR": "0.00000000000000",
    "MEAN_MOTION_DOT": "0.00000054",
    "MEAN_MOTION_DDOT": "0.0000000000000",
    "SEMIMAJOR_AXIS": "29600.313",
    "PERIOD": "844.703",
    "APOAPSIS": "23235.344",
    "PERIAPSIS": "23209.011",
    "OBJECT_TYPE": "PAYLOAD",
    "RCS_SIZE": "LARGE",
    "COUNTRY_CODE": "ESA",
    "LAUNCH_DATE": "2016-11-17",
    "SITE": "FRGUI",
    "DECAY_DATE": null,
    "FILE": "4736993",
    "GP_ID": "288175445",
    "TLE_LINE0": "0 GALILEO 16 (26C)",
    "TLE_LINE1": "1 41860U 16069B   25143.10760508  .00000054  00000-0  00000+0 0  9991",
    "TLE_LINE2": "2 41860  55.2619 111.8870 0004448 333.7538  26.1934  1.70474065 53004"
}